[{"OBJECT_NAME":"YUNHAI-2 01A","OBJECT_ID":"2018-112A","EPOCH":"2026-03-09T22:34:33.618432","MEAN_MOTION":14.28975171,"ECCENTRICITY":4.652e-5,"INCLINATION":50.0087,"RA_OF_ASC_NODE":105.4873,"ARG_OF_PERICENTER":228.8508,"MEAN_ANOMALY":131.2367,"EPHEMERIS_TYPE":0,"CLASSIFICATION_TYPE":"U","NORAD_CAT_ID":43909,"ELEMENT_SET_NO":999,"REV_AT_EPOCH":37689,"BSTAR":7.7064636e-5,"MEAN_MOTION_DOT":3.5e-7,"MEAN_MOTION_DDOT":0},{"OBJECT_NAME":"OPS 9845 (DMSP 5D-2 F6)","OBJECT_ID":"1982-118A","EPOCH":"2026-03-09T23:10:09.177600","MEAN_MOTION":14.30479569,"ECCENTRICITY":0.0006526,"INCLINATION":98.5933,"RA_OF_ASC_NODE":257.7841,"ARG_OF_PERICENTER":255.2218,"MEAN_ANOMALY":104.8241,"EPHEMERIS_TYPE":0,"CLASSIFICATION_TYPE":"U","NORAD_CAT_ID":13736,"ELEMENT_SET_NO":999,"REV_AT_EPOCH":25082,"BSTAR":0.00010566965,"MEAN_MOTION_DOT":2.31e-6,"MEAN_MOTION_DDOT":0}]
